{
    "links": {
        "self": "http://www.neowsapp.com/rest/v1/neo/3660310?api_key=iIulBulltgU6a56xZRHN4H3l9WmuAYTsLGpBGhQ2"
    },
    "id": "3660310",
    "neo_reference_id": "3660310",
    "name": "(2014 BX57)",
    "designation": "2014 BX57",
    "nasa_jpl_url": "http://ssd.jpl.nasa.gov/sbdb.cgi?sstr=3660310",
    "absolute_magnitude_h": 26.5,
    "estimated_diameter": {
        "kilometers": {
            "estimated_diameter_min": 0.0133215567,
            "estimated_diameter_max": 0.0297879063
        },
        "meters": {
            "estimated_diameter_min": 13.3215566698,
            "estimated_diameter_max": 29.7879062798
        },
        "miles": {
            "estimated_diameter_min": 0.008277629,
            "estimated_diameter_max": 0.0185093411
        },
        "feet": {
            "estimated_diameter_min": 43.7058959846,
            "estimated_diameter_max": 97.7293544391
        }
    },
    "is_potentially_hazardous_asteroid": false,
    "close_approach_data": [
        {
            "close_approach_date": "1976-12-04",
            "close_approach_date_full": "1976-Dec-04 01:40",
            "epoch_date_close_approach": 218511600000,
            "relative_velocity": {
                "kilometers_per_second": "7.5129794962",
                "kilometers_per_hour": "27046.7261863838",
                "miles_per_hour": "16805.7838350894"
            },
            "miss_distance": {
                "astronomical": "0.1092245357",
                "lunar": "42.4883443873",
                "kilometers": "16339757.892458959",
                "miles": "10153054.7509692742"
            },
            "orbiting_body": "Earth"
        },
        {
            "close_approach_date": "2006-11-19",
            "close_approach_date_full": "2006-Nov-19 06:21",
            "epoch_date_close_approach": 1163917260000,
            "relative_velocity": {
                "kilometers_per_second": "12.6562660491",
                "kilometers_per_hour": "45562.5577767406",
                "miles_per_hour": "28310.8015252197"
            },
            "miss_distance": {
                "astronomical": "0.2571065653",
                "lunar": "100.0144539017",
                "kilometers": "38462594.531895911",
                "miles": "23899548.0053531318"
            },
            "orbiting_body": "Earth"
        },
        {
            "close_approach_date": "2014-01-26",
            "close_approach_date_full": "2014-Jan-26 08:40",
            "epoch_date_close_approach": 1390725600000,
            "relative_velocity": {
                "kilometers_per_second": "5.4153350641",
                "kilometers_per_hour": "19495.2062307098",
                "miles_per_hour": "12113.5630048541"
            },
            "miss_distance": {
                "astronomical": "0.0171616329",
                "lunar": "6.6758751981",
                "kilometers": "2567343.727561923",
                "miles": "1595273.4184956174"
            },
            "orbiting_body": "Earth"
        },
        {
            "close_approach_date": "2021-02-23",
            "close_approach_date_full": "2021-Feb-23 16:57",
            "epoch_date_close_approach": 1614099420000,
            "relative_velocity": {
                "kilometers_per_second": "11.0278417755",
                "kilometers_per_hour": "39700.230391688",
                "miles_per_hour": "24668.1792675464"
            },
            "miss_distance": {
                "astronomical": "0.1836719191",
                "lunar": "71.4483765299",
                "kilometers": "27476927.876172317",
                "miles": "17073371.2795072946"
            },
            "orbiting_body": "Earth"
        },
        {
            "close_approach_date": "2028-03-09",
            "close_approach_date_full": "2028-Mar-09 22:37",
            "epoch_date_close_approach": 1836254220000,
            "relative_velocity": {
                "kilometers_per_second": "17.9837361317",
                "kilometers_per_hour": "64741.4500740098",
                "miles_per_hour": "40227.8193529313"
            },
            "miss_distance": {
                "astronomical": "0.4185861224",
                "lunar": "162.8300016136",
                "kilometers": "62619592.322599288",
                "miles": "38910010.3881066544"
            },
            "orbiting_body": "Earth"
        }
    ],
    "orbital_data": {
        "orbit_id": "8",
        "orbit_determination_date": "2017-04-06 08:42:37",
        "first_observation_date": "2014-01-29",
        "last_observation_date": "2014-02-04",
        "data_arc_in_days": 6,
        "observations_used": 35,
        "orbit_uncertainty": "7",
        "minimum_orbit_intersection": ".0130137",
        "jupiter_tisserand_invariant": "4.567",
        "epoch_osculation": "2459000.5",
        "eccentricity": ".3308344159975342",
        "semi_major_axis": "1.456797020121901",
        "inclination": "4.72976037510329",
        "ascending_node_longitude": "316.91837281",
        "orbital_period": "642.2394716504956",
        "perihelion_distance": ".9748384287429235",
        "perihelion_argument": "150.6134720366313",
        "aphelion_distance": "1.938755611500878",
        "perihelion_time": "2459236.533415434839",
        "mean_anomaly": "227.6941650157818",
        "mean_motion": ".5605385777283878",
        "equinox": "J2000",
        "orbit_class": {
            "orbit_class_type": "APO",
            "orbit_class_description": "Near-Earth asteroid orbits which cross the Earth’s orbit similar to that of 1862 Apollo",
            "orbit_class_range": "a (semi-major axis) > 1.0 AU; q (perihelion) < 1.017 AU"
        }
    },
    "is_sentry_object": false
}